{
  "type": "FeatureCollection",
  "features": [
    {
      "type": "Feature",
      "properties": {
        "norad_id": 26766,
        "name": "INTELSAT 10 (IS-10)",
        "group": "intelsat",
        "lat": -2.4129057678819072,
        "lon": 44.96716878166488,
        "alt_km": 36141.84919147163,
        "timestamp": "2025-12-09T11:33:54.467856+00:00",
        "meta_object_name": "INTELSAT 10 (IS-10)",
        "meta_object_id": "2001-019A",
        "meta_epoch": "2025-12-08T12:50:38.847840",
        "meta_mean_motion": 0.99078973,
        "meta_eccentricity": 0.0007853,
        "meta_inclination": 8.6199,
        "meta_ra_of_asc_node": 61.1985,
        "meta_arg_of_pericenter": 221.9209,
        "meta_mean_anomaly": 143.9126,
        "meta_ephemeris_type": 0,
        "meta_classification_type": "U",
        "meta_norad_cat_id": 26766,
        "meta_element_set_no": 999,
        "meta_rev_at_epoch": 4369,
        "meta_bstar": 0,
        "meta_mean_motion_dot": -2.74e-06,
        "meta_mean_motion_ddot": 0,
        "tle_line1": "1 26766U 01019A   25342.53517185 -.00000274  00000+0  00000+0 0  9991",
        "tle_line2": "2 26766   8.6199  61.1985 0007853 221.9209 143.9126  0.99078973 43690"
      },
      "geometry": {
        "type": "Point",
        "coordinates": [
          44.96716878166488,
          -2.4129057678819072
        ]
      }
    },
    {
      "type": "Feature",
      "properties": {
        "norad_id": 26900,
        "name": "INTELSAT 902 (IS-902)",
        "group": "intelsat",
        "lat": 4.453707786339824,
        "lon": -158.13767621152837,
        "alt_km": 35774.49576655448,
        "timestamp": "2025-12-09T11:33:54.467880+00:00",
        "meta_object_name": "INTELSAT 902 (IS-902)",
        "meta_object_id": "2001-039A",
        "meta_epoch": "2025-12-01T16:59:59.311968",
        "meta_mean_motion": 1.00270327,
        "meta_eccentricity": 0.00043097,
        "meta_inclination": 5.6187,
        "meta_ra_of_asc_node": 74.2002,
        "meta_arg_of_pericenter": 175.119,
        "meta_mean_anomaly": 26.3816,
        "meta_ephemeris_type": 0,
        "meta_classification_type": "U",
        "meta_norad_cat_id": 26900,
        "meta_element_set_no": 999,
        "meta_rev_at_epoch": 8871,
        "meta_bstar": 0,
        "meta_mean_motion_dot": -2.63e-06,
        "meta_mean_motion_ddot": 0,
        "tle_line1": "1 26900U 01039A   25335.70832537 -.00000263  00000+0  00000+0 0  9993",
        "tle_line2": "2 26900   5.6187  74.2002 0004309 175.1190  26.3816  1.00270327 88713"
      },
      "geometry": {
        "type": "Point",
        "coordinates": [
          -158.13767621152837,
          4.453707786339824
        ]
      }
    },
    {
      "type": "Feature",
      "properties": {
        "norad_id": 27380,
        "name": "INTELSAT 904 (IS-904)",
        "group": "intelsat",
        "lat": 3.3082337391832928,
        "lon": -139.45090131136533,
        "alt_km": 35783.53954437833,
        "timestamp": "2025-12-09T11:33:54.467897+00:00",
        "meta_object_name": "INTELSAT 904 (IS-904)",
        "meta_object_id": "2002-007A",
        "meta_epoch": "2025-12-08T15:09:58.269024",
        "meta_mean_motion": 1.00268358,
        "meta_eccentricity": 0.0001612,
        "meta_inclination": 6.4433,
        "meta_ra_of_asc_node": 71.4765,
        "meta_arg_of_pericenter": 211.5706,
        "meta_mean_anomaly": 350.5417,
        "meta_ephemeris_type": 0,
        "meta_classification_type": "U",
        "meta_norad_cat_id": 27380,
        "meta_element_set_no": 999,
        "meta_rev_at_epoch": 8717,
        "meta_bstar": 0,
        "meta_mean_motion_dot": -2.26e-06,
        "meta_mean_motion_ddot": 0,
        "tle_line1": "1 27380U 02007A   25342.63192441 -.00000226  00000+0  00000+0 0  9994",
        "tle_line2": "2 27380   6.4433  71.4765 0001612 211.5706 350.5417  1.00268358 87175"
      },
      "geometry": {
        "type": "Point",
        "coordinates": [
          -139.45090131136533,
          3.3082337391832928
        ]
      }
    },
    {
      "type": "Feature",
      "properties": {
        "norad_id": 27426,
        "name": "DIRECTV 5 (TEMPO 1)",
        "group": "intelsat",
        "lat": 3.962849549566042,
        "lon": 141.73694664137057,
        "alt_km": 35797.379367413545,
        "timestamp": "2025-12-09T11:33:54.467912+00:00",
        "meta_object_name": "DIRECTV 5 (TEMPO 1)",
        "meta_object_id": "2002-023A",
        "meta_epoch": "2025-12-09T03:45:20.950272",
        "meta_mean_motion": 1.00271976,
        "meta_eccentricity": 0.0003911,
        "meta_inclination": 4.3932,
        "meta_ra_of_asc_node": 77.6928,
        "meta_arg_of_pericenter": 200.079,
        "meta_mean_anomaly": 106.6005,
        "meta_ephemeris_type": 0,
        "meta_classification_type": "U",
        "meta_norad_cat_id": 27426,
        "meta_element_set_no": 999,
        "meta_rev_at_epoch": 8621,
        "meta_bstar": 0,
        "meta_mean_motion_dot": -5.6e-07,
        "meta_mean_motion_ddot": 0,
        "tle_line1": "1 27426U 02023A   25343.15649248 -.00000056  00000+0  00000+0 0  9994",
        "tle_line2": "2 27426   4.3932  77.6928 0003911 200.0790 106.6005  1.00271976 86213"
      },
      "geometry": {
        "type": "Point",
        "coordinates": [
          141.73694664137057,
          3.962849549566042
        ]
      }
    },
    {
      "type": "Feature",
      "properties": {
        "norad_id": 27438,
        "name": "INTELSAT 905 (IS-905)",
        "group": "intelsat",
        "lat": 4.265137719513244,
        "lon": 114.55439374164482,
        "alt_km": 35795.86233032716,
        "timestamp": "2025-12-09T11:33:54.467924+00:00",
        "meta_object_name": "INTELSAT 905 (IS-905)",
        "meta_object_id": "2002-027A",
        "meta_epoch": "2025-12-09T04:37:06.727872",
        "meta_mean_motion": 1.00271652,
        "meta_eccentricity": 0.0002862,
        "meta_inclination": 6.277,
        "meta_ra_of_asc_node": 72.0952,
        "meta_arg_of_pericenter": 191.0045,
        "meta_mean_anomaly": 107.158,
        "meta_ephemeris_type": 0,
        "meta_classification_type": "U",
        "meta_norad_cat_id": 27438,
        "meta_element_set_no": 999,
        "meta_rev_at_epoch": 4945,
        "meta_bstar": 0,
        "meta_mean_motion_dot": 9.5e-07,
        "meta_mean_motion_ddot": 0,
        "tle_line1": "1 27438U 02027A   25343.19243898  .00000095  00000+0  00000+0 0  9998",
        "tle_line2": "2 27438   6.2770  72.0952 0002862 191.0045 107.1580  1.00271652 49459"
      },
      "geometry": {
        "type": "Point",
        "coordinates": [
          114.55439374164482,
          4.265137719513244
        ]
      }
    },
    {
      "type": "Feature",
      "properties": {
        "norad_id": 27445,
        "name": "GALAXY 3C (G-3C)",
        "group": "intelsat",
        "lat": 3.171191556213676,
        "lon": 157.06100196833503,
        "alt_km": 35781.55870946867,
        "timestamp": "2025-12-09T11:33:54.467937+00:00",
        "meta_object_name": "GALAXY 3C (G-3C)",
        "meta_object_id": "2002-030A",
        "meta_epoch": "2025-12-09T04:04:38.821728",
        "meta_mean_motion": 1.00270935,
        "meta_eccentricity": 0.0001126,
        "meta_inclination": 3.2554,
        "meta_ra_of_asc_node": 80.5402,
        "meta_arg_of_pericenter": 99.0957,
        "meta_mean_anomaly": 224.8283,
        "meta_ephemeris_type": 0,
        "meta_classification_type": "U",
        "meta_norad_cat_id": 27445,
        "meta_element_set_no": 999,
        "meta_rev_at_epoch": 4458,
        "meta_bstar": 0,
        "meta_mean_motion_dot": -1.51e-06,
        "meta_mean_motion_ddot": 0,
        "tle_line1": "1 27445U 02030A   25343.16989377 -.00000151  00000+0  00000+0 0  9990",
        "tle_line2": "2 27445   3.2554  80.5402 0001126  99.0957 224.8283  1.00270935 44588"
      },
      "geometry": {
        "type": "Point",
        "coordinates": [
          157.06100196833503,
          3.171191556213676
        ]
      }
    },
    {
      "type": "Feature",
      "properties": {
        "norad_id": 27513,
        "name": "INTELSAT 906 (IS-906)",
        "group": "intelsat",
        "lat": -4.658662668209981,
        "lon": -43.962975523695604,
        "alt_km": 35770.74440754369,
        "timestamp": "2025-12-09T11:33:54.467949+00:00",
        "meta_object_name": "INTELSAT 906 (IS-906)",
        "meta_object_id": "2002-041A",
        "meta_epoch": "2025-12-08T20:45:27.234720",
        "meta_mean_motion": 1.00270855,
        "meta_eccentricity": 0.0006097,
        "meta_inclination": 5.3189,
        "meta_ra_of_asc_node": 75.2776,
        "meta_arg_of_pericenter": 189.6707,
        "meta_mean_anomaly": 188.4156,
        "meta_ephemeris_type": 0,
        "meta_classification_type": "U",
        "meta_norad_cat_id": 27513,
        "meta_element_set_no": 999,
        "meta_rev_at_epoch": 8512,
        "meta_bstar": 0,
        "meta_mean_motion_dot": 1.4e-07,
        "meta_mean_motion_ddot": 0,
        "tle_line1": "1 27513U 02041A   25342.86489855  .00000014  00000+0  00000+0 0  9997",
        "tle_line2": "2 27513   5.3189  75.2776 0006097 189.6707 188.4156  1.00270855 85127"
      },
      "geometry": {
        "type": "Point",
        "coordinates": [
          -43.962975523695604,
          -4.658662668209981
        ]
      }
    }
  ]
}